NORAD_CAT_ID,OBJECT_NAME,OBJECT_TYPE,EPOCH,MEAN_MOTION,ECCENTRICITY,INCLINATION,RA_OF_ASC_NODE,ARG_OF_PERICENTER,MEAN_ANOMALY,BSTAR,MEAN_MOTION_DOT,MEAN_MOTION_DDOT,TLE_LINE0,TLE_LINE1,TLE_LINE2,SEMIMAJOR_AXIS,PERIOD,APOGEE,PERIGEE,DECAYED
52995.0,STARLINK-4296,PAYLOAD,2023-03-17 23:09:23,15.08835747,0.0001212,53.2174,297.1094,104.8102,255.3024,0.00012704,1.734e-05,0.0,0 STARLINK-4296,1 52995U 22076K   23076.96485592  .00001734  00000-0  12704-3 0  9995,2 52995  53.2174 297.1094 0001212 104.8102 255.3024 15.08835747 39100,6917.893,95.438,540.597,538.92,0.0
52995.0,STARLINK-4296,PAYLOAD,2023-03-18 21:24:47,15.08843219,0.0001257,53.2162,292.9486,113.9846,246.1278,0.00023403,3.439e-05,0.0,0 STARLINK-4296,1 52995U 22076K   23077.89221447  .00003439  00000-0  23403-3 0  9997,2 52995  53.2162 292.9486 0001257 113.9846 246.1278 15.08843219 38774,6917.871,95.437,540.605,538.866,0.0
52995.0,STARLINK-4296,PAYLOAD,2023-03-19 00:35:33,15.088446,0.0001262,53.2163,292.3522,109.3386,250.7742,0.00044639,6.824e-05,0.0,0 STARLINK-4296,1 52995U 22076K   23078.02469450  .00006824  00000-0  44639-3 0  9996,2 52995  53.2163 292.3522 0001262 109.3386 250.7742 15.08844600 39261,6917.866,95.437,540.604,538.858,0.0
52995.0,STARLINK-4296,PAYLOAD,2023-03-19 06:57:06,15.08840644,0.000134,53.2169,291.161,88.9418,271.1728,0.00011551,1.551e-05,0.0,0 STARLINK-4296,1 52995U 22076K   23078.28965487  .00001551  00000-0  11551-3 0  9994,2 52995  53.2169 291.1610 0001340  88.9418 271.1728 15.08840644 38834,6917.878,95.438,540.67,538.816,0.0
52995.0,STARLINK-4296,PAYLOAD,2023-03-19 21:15:34,15.08842371,0.0001243,53.2158,288.4875,104.3638,255.7492,0.00012364,1.681e-05,0.0,0 STARLINK-4296,1 52995U 22076K   23078.88581506  .00001681  00000-0  12364-3 0  9993,2 52995  53.2158 288.4875 0001243 104.3638 255.7492 15.08842371 39390,6917.873,95.437,540.598,538.878,0.0
52995.0,STARLINK-4296,PAYLOAD,2023-03-20 06:47:53,15.08840174,8.67e-05,53.2157,286.7011,98.1653,261.9437,5.7253e-05,6.24e-06,0.0,0 STARLINK-4296,1 52995U 22076K   23079.28325473  .00000624  00000-0  57253-4 0  9990,2 52995  53.2157 286.7011 0000867  98.1653 261.9437 15.08840174 38981,6917.88,95.438,540.345,539.145,0.0
52995.0,STARLINK-4296,PAYLOAD,2023-03-20 17:55:35,15.088383,2.66e-05,53.2161,284.619,175.8502,184.2492,1.3846e-05,-6.7e-07,0.0,0 STARLINK-4296,1 52995U 22076K   23079.74693383 -.00000067  00000-0  13846-4 0  9991,2 52995  53.2161 284.6190 0000266 175.8502 184.2492 15.08838300 39055,6917.886,95.438,539.935,539.567,0.0
52995.0,STARLINK-4296,PAYLOAD,2023-03-20 22:41:44,15.08852967,9.1e-05,53.2154,283.7268,94.7494,265.3602,0.00040905,6.23e-05,0.0,0 STARLINK-4296,1 52995U 22076K   23079.94565063  .00006230  00000-0  40905-3 0  9998,2 52995  53.2154 283.7268 0000910  94.7494 265.3602 15.08852967 39552,6917.841,95.437,540.335,539.076,0.0
52995.0,STARLINK-4296,PAYLOAD,2023-03-21 19:21:44,15.08847224,0.0001061,53.2151,279.8602,83.7834,276.3279,0.00021203,3.089e-05,0.0,0 STARLINK-4296,1 52995U 22076K   23080.80677066  .00003089  00000-0  21203-3 0  9991,2 52995  53.2151 279.8602 0001061  83.7834 276.3279 15.08847224 39687,6917.858,95.437,540.457,538.989,0.0
52995.0,STARLINK-4296,PAYLOAD,2023-03-22 06:29:27,15.08843971,8.07e-05,53.2147,277.7802,96.1222,263.9862,0.00019646,2.841e-05,0.0,0 STARLINK-4296,1 52995U 22076K   23081.27045342  .00002841  00000-0  19646-3 0  9992,2 52995  53.2147 277.7802 0000807  96.1222 263.9862 15.08843971 39750,6917.868,95.437,540.292,539.175,0.0
52995.0,STARLINK-4296,PAYLOAD,2023-03-22 19:12:32,15.08845782,7.1e-05,53.2159,275.4017,94.0456,266.0617,0.0006668,0.00010342,0.0,0 STARLINK-4296,1 52995U 22076K   23081.80037592  .00010342  00000-0  66680-3 0  9994,2 52995  53.2159 275.4017 0000710  94.0456 266.0617 15.08845782 39366,6917.863,95.437,540.219,539.237,0.0
52995.0,STARLINK-4296,PAYLOAD,2023-03-23 09:31:00,15.08837164,0.0001105,53.2151,272.7249,93.3798,266.7321,8.5599e-05,1.075e-05,0.0,0 STARLINK-4296,1 52995U 22076K   23082.39653671  .00001075  00000-0  85599-4 0  9995,2 52995  53.2151 272.7249 0001105  93.3798 266.7321 15.08837164 39921,6917.889,95.438,540.518,538.99,0.0
52995.0,STARLINK-4296,PAYLOAD,2023-03-23 19:03:19,15.08843166,0.0001018,53.2147,270.9399,80.0036,280.1071,0.00029564,4.421e-05,0.0,0 STARLINK-4296,1 52995U 22076K   23082.79397738  .00004421  00000-0  29564-3 0  9995,2 52995  53.2147 270.9399 0001018  80.0036 280.1071 15.08843166 39519,6917.871,95.437,540.44,539.031,0.0
52995.0,STARLINK-4296,PAYLOAD,2023-03-23 23:49:28,15.08858016,0.0001093,53.2147,270.0476,75.9111,284.2003,0.00068472,0.00010632,0.0,0 STARLINK-4296,1 52995U 22076K   23082.99269394  .00010632  00000-0  68472-3 0  9995,2 52995  53.2147 270.0476 0001093  75.9111 284.2003 15.08858016 40013,6917.825,95.436,540.446,538.934,0.0
52995.0,STARLINK-4296,PAYLOAD,2023-03-24 18:54:05,15.08883512,0.0001221,53.2155,266.4799,80.1806,279.9324,0.0012476,0.00019647,0.0,0 STARLINK-4296,1 52995U 22076K   23083.78756149  .00019647  00000-0  12476-2 0  9999,2 52995  53.2155 266.4799 0001221  80.1806 279.9324 15.08883512 39666,6917.747,95.435,540.457,538.768,0.0
52995.0,STARLINK-4296,PAYLOAD,2023-03-25 18:44:54,15.08800882,0.0001137,53.2154,262.0183,105.2284,254.8834,-0.00033848,-5.665e-05,0.0,0 STARLINK-4296,1 52995U 22076K   23084.78118580 -.00005665  00000-0 -33848-3 0  9995,2 52995  53.2154 262.0183 0001137 105.2284 254.8834 15.08800882 40286,6918.0,95.44,540.652,539.078,0.0
52995.0,STARLINK-4296,PAYLOAD,2023-03-26 12:14:10,15.08821528,0.0001156,53.2155,258.7478,115.822,244.2891,0.0013271,0.00020885,0.0,0 STARLINK-4296,1 52995U 22076K   23085.50984353  .00020885  00000-0  13271-2 0  9991,2 52995  53.2155 258.7478 0001156 115.8220 244.2891 15.08821528 40392,6917.937,95.439,540.602,539.002,0.0
52995.0,STARLINK-4296,PAYLOAD,2023-03-26 21:46:29,15.08848624,0.0001134,53.2157,256.9646,111.785,248.3263,0.001756,0.00027776,0.0,0 STARLINK-4296,1 52995U 22076K   23085.90728374  .00027776  00000-0  17560-2 0  9995,2 52995  53.2157 256.9646 0001134 111.7850 248.3263 15.08848624 39988,6917.854,95.437,540.504,538.935,0.0
52995.0,STARLINK-4296,PAYLOAD,2023-03-27 20:01:51,15.08886681,0.0001056,53.2158,252.8015,107.9091,252.2016,0.0015482,0.00024469,0.0,0 STARLINK-4296,1 52995U 22076K   23086.83462673  .00024469  00000-0  15482-2 0  9992,2 52995  53.2158 252.8015 0001056 107.9091 252.2016 15.08886681 40595,6917.738,95.435,540.333,538.872,0.0
52995.0,STARLINK-4296,PAYLOAD,2023-03-27 23:12:37,15.08896,9.62e-05,53.2149,252.2057,104.0924,256.0175,0.0016874,0.0002671,0.0,0 STARLINK-4296,1 52995U 22076K   23086.96710157  .00026710  00000-0  16874-2 0  9996,2 52995  53.2149 252.2057 0000962 104.0924 256.0175 15.08896000 40148,6917.709,95.434,540.24,538.909,0.0
52995.0,STARLINK-4296,PAYLOAD,2023-03-28 18:17:15,15.08856794,9.72e-05,53.2152,248.6382,79.3424,280.7678,0.0013351,0.00021034,0.0,0 STARLINK-4296,1 52995U 22076K   23087.76198153  .00021034  00000-0  13351-2 0  9992,2 52995  53.2152 248.6382 0000972  79.3424 280.7678 15.08856794 40735,6917.829,95.436,540.366,539.022,0.0
52995.0,STARLINK-4296,PAYLOAD,2023-03-28 23:03:24,15.08868594,9.59e-05,53.2146,247.7453,72.9218,287.1879,0.0017011,0.0002691,0.0,0 STARLINK-4296,1 52995U 22076K   23087.96069798  .00026910  00000-0  17011-2 0  9991,2 52995  53.2146 247.7453 0000959  72.9218 287.1879 15.08868594 40298,6917.793,95.436,540.321,538.995,0.0
52995.0,STARLINK-4296,PAYLOAD,2023-03-29 18:08:02,15.0885054,0.000105,53.2148,244.174,110.1109,249.9996,0.0014245,0.00022462,0.0,0 STARLINK-4296,1 52995U 22076K   23088.75557983  .00022462  00000-0  14245-2 0  9991,2 52995  53.2148 244.1740 0001050 110.1109 249.9996 15.08850540 40880,6917.848,95.437,540.44,538.987,0.0
52995.0,STARLINK-4296,PAYLOAD,2023-03-30 10:01:53,15.0884421,0.0001177,53.2158,241.201,85.5635,274.5491,0.00098868,0.00015484,0.0,0 STARLINK-4296,1 52995U 22076K   23089.41798344  .00015484  00000-0  98868-3 0  9993,2 52995  53.2158 241.2010 0001177  85.5635 274.5491 15.08844210 40980,6917.868,95.437,540.547,538.918,0.0
52995.0,STARLINK-4296,PAYLOAD,2023-03-30 16:23:26,15.0885307,0.0001263,53.2152,240.0113,84.4739,275.6397,0.001538,0.00024283,0.0,0 STARLINK-4296,1 52995U 22076K   23089.68294440  .00024283  00000-0  15380-2 0  9994,2 52995  53.2152 240.0113 0001263  84.4739 275.6397 15.08853070 40558,6917.84,95.437,540.579,538.832,0.0
52995.0,STARLINK-4296,PAYLOAD,2023-03-31 03:31:08,15.08841592,0.0001696,53.2151,237.9334,69.0686,291.0487,0.00079729,0.00012424,0.0,0 STARLINK-4296,1 52995U 22076K   23090.14662759  .00012424  00000-0  79729-3 0  9991,2 52995  53.2151 237.9334 0001696  69.0686 291.0487 15.08841592 41095,6917.876,95.437,540.914,538.567,0.0
52995.0,STARLINK-4296,PAYLOAD,2023-03-31 19:24:59,15.08870844,0.0001329,53.2147,234.9579,78.9074,281.2068,0.0021691,0.00034431,0.0,0 STARLINK-4296,1 52995U 22076K   23090.80902031  .00034431  00000-0  21691-2 0  9990,2 52995  53.2147 234.9579 0001329  78.9074 281.2068 15.08870844 41190,6917.786,95.436,540.57,538.732,0.0
52995.0,STARLINK-4296,PAYLOAD,2023-04-01 09:43:28,15.08840233,0.0001175,53.2155,232.2807,88.3574,271.7553,0.0009949,0.00015581,0.0,0 STARLINK-4296,1 52995U 22076K   23091.40518727  .00015581  00000-0  99490-3 0  9990,2 52995  53.2155 232.2807 0001175  88.3574 271.7553 15.08840233 41285,6917.88,95.438,540.558,538.932,0.0
52995.0,STARLINK-4296,PAYLOAD,2023-04-01 12:54:14,15.0883297,0.0001229,53.2159,231.6854,86.4801,273.6331,0.0010772,0.00016894,0.0,0 STARLINK-4296,1 52995U 22076K   23091.53767004  .00016894  00000-0  10772-2 0  9991,2 52995  53.2159 231.6854 0001229  86.4801 273.6331 15.08832970 40830,6917.902,95.438,540.617,538.917,0.0
52995.0,STARLINK-4296,PAYLOAD,2023-04-01 14:29:37,15.08832249,0.0001286,53.2159,231.388,91.795,268.319,0.0013229,0.00020824,0.0,0 STARLINK-4296,1 52995U 22076K   23091.60391122  .00020824  00000-0  13229-2 0  9991,2 52995  53.2159 231.3880 0001286  91.7950 268.3190 15.08832249 41310,6917.904,95.438,540.659,538.879,0.0
